NORAD_CAT_ID,OBJECT_NAME,OBJECT_TYPE,EPOCH,MEAN_MOTION,ECCENTRICITY,INCLINATION,RA_OF_ASC_NODE,ARG_OF_PERICENTER,MEAN_ANOMALY,BSTAR,MEAN_MOTION_DOT,MEAN_MOTION_DDOT,TLE_LINE0,TLE_LINE1,TLE_LINE2,SEMIMAJOR_AXIS,PERIOD,APOGEE,PERIGEE,DECAYED
54000.0,STARLINK-5088,PAYLOAD,2023-01-07 16:43:46,15.08839066,0.0001739,53.2146,358.2391,53.5781,306.5372,-5.8246e-05,-1.215e-05,0.0,0 STARLINK-5088,1 54000U 22125AN  23007.69706419 -.00001215  00000-0 -58246-4 0  9995,2 54000  53.2146 358.2391 0001739  53.5781 306.5372 15.08839066 15000,6917.883000000002,95.438,540.951,538.545,0.0
54000.0,STARLINK-5088,PAYLOAD,2023-01-08 05:26:51,15.08833371,0.0001648,53.2164,355.8609,52.605,307.5092,4.0625e-05,3.58e-06,0.0,0 STARLINK-5088,1 54000U 22125AN  23008.22698562  .00000358  00000-0  40625-4 0  9991,2 54000  53.2164 355.8609 0001648  52.6050 307.5092 15.08833371 15017,6917.901,95.438,540.906,538.626,0.0
54000.0,STARLINK-5088,PAYLOAD,2023-01-09 05:17:38,15.08840735,0.0001688,53.2163,351.4015,53.2149,306.8998,6.759600000000001e-05,7.88e-06,0.0,0 STARLINK-5088,1 54000U 22125AN  23009.22058251  .00000788  00000-0  67596-4 0  9990,2 54000  53.2163 351.4015 0001688  53.2149 306.8998 15.08840735 15232,6917.8780000000015,95.438,540.911,538.575,0.0
54000.0,STARLINK-5088,PAYLOAD,2023-01-10 03:33:02,15.08832735,0.0001685,53.2158,347.2379,52.9683,307.1463,6.3155e-05,7.17e-06,0.0,0 STARLINK-5088,1 54000U 22125AN  23010.14794973  .00000717  00000-0  63155-4 0  9990,2 54000  53.2158 347.2379 0001685  52.9683 307.1463 15.08832735 15375,6917.903,95.438,540.933,538.602,0.0
54000.0,STARLINK-5088,PAYLOAD,2023-01-10 05:08:25,15.08836495,0.0001794,53.2162,346.9413,47.714,312.4004,4.1956e-05,3.8e-06,0.0,0 STARLINK-5088,1 54000U 22125AN  23010.21418857  .00000380  00000-0  41956-4 0  9993,2 54000  53.2162 346.9413 0001794  47.7140 312.4004 15.08836495 15317,6917.891,95.438,540.997,538.515,0.0
54000.0,STARLINK-5088,PAYLOAD,2023-01-11 04:59:12,15.08839406,0.0001813,53.2155,342.4804,47.5051,312.6095,7.789e-05,9.52e-06,0.0,0 STARLINK-5088,1 54000U 22125AN  23011.20778746  .00000952  00000-0  77890-4 0  9990,2 54000  53.2155 342.4804 0001813  47.5051 312.6095 15.08839406 15536,6917.882,95.438,541.001,538.493,0.0
54000.0,STARLINK-5088,PAYLOAD,2023-01-11 14:31:30,15.08850171,0.0001823,53.216,340.6969,48.0877,312.0271,0.00015459,2.174e-05,0.0,0 STARLINK-5088,1 54000U 22125AN  23011.60521764  .00002174  00000-0  15459-3 0  9990,2 54000  53.2160 340.6969 0001823  48.0877 312.0271 15.08850171 15595,6917.849,95.437,540.975,538.453,0.0
54000.0,STARLINK-5088,PAYLOAD,2023-01-12 01:39:13,15.08842983,0.0001585,53.2166,338.6185,61.3828,298.7324,0.00014153,1.965e-05,0.0,0 STARLINK-5088,1 54000U 22125AN  23012.06890227  .00001965  00000-0  14153-3 0  9991,2 54000  53.2166 338.6185 0001585  61.3828 298.7324 15.08842983 15666,6917.871,95.437,540.8330000000002,538.64,0.0
54000.0,STARLINK-5088,PAYLOAD,2023-01-12 14:22:19,15.08830839,0.0001459,53.2154,336.2394,56.0699,304.0431,-1.7675999999999998e-05,-5.69e-06,0.0,0 STARLINK-5088,1 54000U 22125AN  23012.59883381 -.00000569  00000-0 -17676-4 0  9997,2 54000  53.2154 336.2394 0001459  56.0699 304.0431 15.08830839 15742,6917.908,95.438,540.783,538.764,0.0
54000.0,STARLINK-5088,PAYLOAD,2023-01-13 03:05:25,15.08817105,0.0001440999999999,53.2155,333.8567,82.5033,277.6123,-0.00011866,-2.175e-05,0.0,0 STARLINK-5088,1 54000U 22125AN  23013.12877069 -.00002175  00000-0 -11866-3 0  9992,2 54000  53.2155 333.8567 0001441  82.5033 277.6123 15.08817105 15828,6917.95,95.439,540.812,538.818,0.0
54000.0,STARLINK-5088,PAYLOAD,2023-01-13 14:13:07,15.08832184,0.0001447,53.2152,331.7749,59.2048,300.9087,-8.3366e-05,-1.614e-05,0.0,0 STARLINK-5088,1 54000U 22125AN  23013.59244554 -.00001614  00000-0 -83366-4 0  9992,2 54000  53.2152 331.7749 0001447  59.2048 300.9087 15.08832184 15820,6917.904,95.438,540.77,538.768,0.0
54000.0,STARLINK-5088,PAYLOAD,2023-01-14 02:56:10,15.08856525,0.0001242999999999,53.2151,329.3967,58.4596,301.6518,0.00015301,2.149e-05,0.0,0 STARLINK-5088,1 54000U 22125AN  23014.12234556  .00002149  00000-0  15301-3 0  9998,2 54000  53.2151 329.3967 0001243  58.4596 301.6518 15.08856525 15975,6917.83,95.437,540.555,538.835,0.0
54000.0,STARLINK-5088,PAYLOAD,2023-01-14 14:03:53,15.08846121,0.0001137999999999,53.216,327.3148,69.0184,291.093,1.1173e-05,-1.1e-06,0.0,0 STARLINK-5088,1 54000U 22125AN  23014.58603364 -.00000110  00000-0  11173-4 0  9996,2 54000  53.2160 327.3148 0001138  69.0184 291.0930 15.08846121 16048,6917.861999999999,95.437,540.514,538.939,0.0
54000.0,STARLINK-5088,PAYLOAD,2023-01-15 02:46:59,15.08832227,0.0001224,53.2164,324.9354,83.4721,276.641,0.0003351999999999,5.05e-05,0.0,0 STARLINK-5088,1 54000U 22125AN  23015.11596106  .00005050  00000-0  33520-3 0  9997,2 54000  53.2164 324.9354 0001224  83.4721 276.6410 15.08832227 16120,6917.904,95.438,540.616,538.922,0.0
54000.0,STARLINK-5088,PAYLOAD,2023-01-15 13:54:40,15.08844777,9.63e-05,53.2157,322.8539,79.2775,280.8325,0.00022115,3.234e-05,0.0,0 STARLINK-5088,1 54000U 22125AN  23015.57963621  .00003234  00000-0  22115-3 0  9997,2 54000  53.2157 322.8539 0000963  79.2775 280.8325 15.08844777 16197,6917.866,95.437,540.3969999999999,539.065,0.0
54000.0,STARLINK-5088,PAYLOAD,2023-01-16 02:37:44,15.08874789,0.0001164,53.2163,320.4756,86.4861,273.6264,0.00029514,4.417e-05,0.0,0 STARLINK-5088,1 54000U 22125AN  23016.10954221  .00004417  00000-0  29514-3 0  9997,2 54000  53.2163 320.4756 0001164  86.4861 273.6264 15.08874789 16276,6917.774,95.435,540.444,538.8340000000001,0.0
54000.0,STARLINK-5088,PAYLOAD,2023-01-16 20:07:00,15.08835493,0.0002449,53.2159,317.2059,89.6878,270.4395,-1.1509e-05,-4.72e-06,0.0,0 STARLINK-5088,1 54000U 22125AN  23016.83820345 -.00000472  00000-0 -11509-4 0  9991,2 54000  53.2159 317.2059 0002449  89.6878 270.4395 15.08835493 16382,6917.894,95.438,541.453,538.065,0.0
54000.0,STARLINK-5088,PAYLOAD,2023-01-17 02:28:34,15.08816867,0.0001354,53.2173,316.0145,112.5704,247.5431,-0.00019936,-3.457e-05,0.0,0 STARLINK-5088,1 54000U 22125AN  23017.10317232 -.00003457  00000-0 -19936-3 0  9995,2 54000  53.2173 316.0145 0001354 112.5704 247.5431 15.08816867 16424,6917.951,95.439,540.753,538.879,0.0
54000.0,STARLINK-5088,PAYLOAD,2023-01-17 05:39:20,15.08823184,0.0001029,53.215,315.4187,104.5931,255.5175,-0.00024621,-4.202e-05,0.0,0 STARLINK-5088,1 54000U 22125AN  23017.23565033 -.00004202  00000-0 -24621-3 0  9999,2 54000  53.2150 315.4187 0001029 104.5931 255.5175 15.08823184 16378,6917.932,95.439,540.509,539.085,0.0
54000.0,STARLINK-5088,PAYLOAD,2023-01-18 11:51:39,15.08846398,0.0001065999999999,53.2166,309.7694,87.3915,272.7199,0.00010792,1.4300000000000002e-05,0.0,0 STARLINK-5088,1 54000U 22125AN  23018.49420642  .00001430  00000-0  10792-3 0  9996,2 54000  53.2166 309.7694 0001066  87.3915 272.7199 15.08846398 16633,6917.861,95.437,540.4630000000001,538.988,0.0
54000.0,STARLINK-5088,PAYLOAD,2023-01-18 19:48:35,15.08833002,0.0001103,53.2166,308.2835,97.4253,262.6864,0.00051202,7.869e-05,0.0,0 STARLINK-5088,1 54000U 22125AN  23018.82541613  .00007869  00000-0  51202-3 0  9998,2 54000  53.2166 308.2835 0001103  97.4253 262.6864 15.08833002 16616,6917.901999999999,95.438,540.53,539.004,0.0
54000.0,STARLINK-5088,PAYLOAD,2023-01-19 02:10:07,15.08855596,0.000103,53.2165,307.0917,103.0753,257.0355,0.00059155,9.143e-05,0.0,0 STARLINK-5088,1 54000U 22125AN  23019.09036456  .00009143  00000-0  59155-3 0  9994,2 54000  53.2165 307.0917 0001030 103.0753 257.0355 15.08855596 16650,6917.8330000000005,95.437,540.41,538.985,0.0
54000.0,STARLINK-5088,PAYLOAD,2023-01-19 18:03:59,15.08835714,0.0001305,53.2169,304.1203,95.3094,264.8047,9.3671e-05,1.203e-05,0.0,0 STARLINK-5088,1 54000U 22125AN  23019.75277627  .00001203  00000-0  93671-4 0  9995,2 54000  53.2169 304.1203 0001305  95.3094 264.8047 15.08835714 16829,6917.893,95.438,540.661,538.856,0.0
54000.0,STARLINK-5088,PAYLOAD,2023-01-20 02:00:56,15.08819672,9.21e-05,53.2167,302.6339,46.6462,313.4606,0.00023902,3.516e-05,0.0,0 STARLINK-5088,1 54000U 22125AN  23020.08398667  .00003516  00000-0  23902-3 0  9999,2 54000  53.2167 302.6339 0000921  46.6462 313.4606 15.08819672 16873,6917.943,95.439,540.445,539.17,0.0
54000.0,STARLINK-5088,PAYLOAD,2023-01-20 11:33:14,15.08830772,0.0001512,53.2166,300.8496,79.0747,281.0415,-0.00014847,-2.65e-05,0.0,0 STARLINK-5088,1 54000U 22125AN  23020.48142252 -.00002650  00000-0 -14847-3 0  9998,2 54000  53.2166 300.8496 0001512  79.0747 281.0415 15.08830772 16938,6917.909000000001,95.438,540.82,538.7280000000001,0.0
54000.0,STARLINK-5088,PAYLOAD,2023-01-21 01:51:41,15.08856056,0.0001131,53.2161,298.1719,95.2811,264.831,0.00015547,2.188e-05,0.0,0 STARLINK-5088,1 54000U 22125AN  23021.07756716  .00002188  00000-0  15547-3 0  9992,2 54000  53.2161 298.1719 0001131  95.2811 264.8310 15.08856056 17026,6917.831,95.437,540.479,538.914,0.0
54000.0,STARLINK-5088,PAYLOAD,2023-01-21 11:24:01,15.0884703,0.0001125999999999,53.2165,296.3885,86.5244,273.5877,5.3949e-05,5.71e-06,0.0,0 STARLINK-5088,1 54000U 22125AN  23021.47501198  .00000571  00000-0  53949-4 0  9991,2 54000  53.2165 296.3885 0001126  86.5244 273.5877 15.08847030 17084,6917.859,95.437,540.503,538.945,0.0
54000.0,STARLINK-5088,PAYLOAD,2023-01-22 01:42:29,15.08843565,0.0001226,53.2161,293.7144,81.0799,279.0332,0.0002631999999999,3.904e-05,0.0,0 STARLINK-5088,1 54000U 22125AN  23022.07117712  .00003904  00000-0  26320-3 0  9998,2 54000  53.2161 293.7144 0001226  81.0799 279.0332 15.08843565 17171,6917.869000000001,95.437,540.5830000000001,538.886,0.0
54000.0,STARLINK-5088,PAYLOAD,2023-01-22 17:36:21,15.088344,0.000108,53.2152,290.7392,81.7365,278.375,2.8632e-05,1.68e-06,0.0,0 STARLINK-5088,1 54000U 22125AN  23022.73358233  .00000168  00000-0  28632-4 0  9994,2 54000  53.2152 290.7392 0001080  81.7365 278.3750 15.08834400 17272,6917.898,95.438,540.51,539.015,0.0
